IRIDIUM 170             
1 43930U 19002J   22096.56124524  .00000354  00000+0  52183-4 0  9993
2 43930  86.6053 274.0897 0002491  87.6403 272.5099 14.72250277173765
IRIDIUM 167             
1 43931U 19002K   22096.54991584  .00000087  00000+0  24109-4 0  9990
2 43931  86.3918 274.0517 0002538  98.8854 261.2629 14.34218499169282
RAPIS-1                 
1 43932U 19003A   22096.60983010  .00006553  00000+0  40648-3 0  9993
2 43932  97.1772 110.6508 0002829   5.2417 354.8842 15.10026938173951
ORIGAMISAT-1            
1 43933U 19003B   22096.52385128  .00391895  00000+0  46293-2 0  9998
2 43933  97.1397 134.7634 0005405  93.2847 266.9028 15.60006380179060
RISESAT                 
1 43934U 19003C   22096.86259464  .00032299  00000+0  12826-2 0  9994
2 43934  97.1432 128.9008 0017459  76.0476  49.0452 15.25123967178714
MICRODRAGON             
1 43935U 19003D   22096.52257427  .00007500  00000+0  30331-3 0  9994
2 43935  97.1456 129.9097 0018867  72.7913 287.5389 15.24827318178733
NEXUS (FO-99)           
1 43937U 19003F   22096.34685759  .00014860  00000+0  52961-3 0  9999
2 43937  97.1396 132.5648 0022726  55.6641 304.6746 15.28756511178959
ALE-1                   
1 43938U 19003G   22096.63506129  .00056045  00000+0  14800-2 0  9995
2 43938  97.1521 136.8742 0018014  49.5799 310.7014 15.38094243179172
AOBA VELOX-IV           
1 43940U 19003J   22096.66002846  .00030821  00000+0  96007-3 0  9992
2 43940  97.1379 134.8158 0020407  48.2730 312.0254 15.33006709179115
LINGQUE 1A              
1 43942U 19005A   22096.83479748  .00132321  00000+0  30183-2 0  9994
2 43942  97.5118 205.7303 0010645 189.4132 286.6116 15.42337352177908
JILIN-01-09             
1 43943U 19005B   22096.84932634  .00005042  00000+0  28634-3 0  9992
2 43943  97.4985 192.5141 0013754 203.7962 303.8998 15.13289840177050
XIAOXIANG 3             
1 43944U 19005C   22096.83284786  .00016288  00000+0  84236-3 0  9994
2 43944  97.4990 193.8798 0011437 198.8810 309.8678 15.16275811177137
JILIN-01-10             
1 43946U 19005E   22096.87910171  .00005309  00000+0  30085-3 0  9999
2 43946  97.4982 192.5884 0018770 198.6668 294.2529 15.13274771176994
HELLAS-SAT 4 & SGS-1    
1 44034U 19007A   22096.75599587  .00000151  00000+0  00000+0 0  9991
2 44034   0.0690 124.7655 0003190  19.4548   1.9311  1.00269924 11983
GSAT-31                 
1 44035U 19007B   22096.56924451  .00000123  00000+0  00000+0 0  9992
2 44035   0.0688  96.8895 0003543 231.2078 119.5290  1.00270909 11606
2018-092C               
1 44041U 18092C   22096.91557546  .00021011  00000+0  46907-3 0  9997
2 44041  51.6383  64.4551 0002491 181.0397 210.2257 15.43489984177594
2018-092D               
1 44042U 18092D   22096.82474603  .00020501  00000+0  46197-3 0  9994
2 44042  51.6393  65.9746 0002320 171.0845 267.2092 15.43228899190529
CHEFSAT 2               
1 44044U 18092E   22096.28104569  .00113461  00000+0  14318-2 0  9994
2 44044  51.6349  54.3739 0006493 169.9295 190.1829 15.58689762176911
EGYPTSAT-A (MISRSAT-A)  
1 44047U 19008A   22096.75428527  .00000745  00000+0  12573-3 0  9992
2 44047  98.0082 162.5164 0001210  77.1220 283.0120 14.72264786167755
NUSANTARA SATU          
1 44048U 19009A   22096.34676602 -.00000236  00000+0  00000+0 0  9992
2 44048   0.0162 166.4845 0001792 202.5610  96.3995  1.00272677 11409
ONEWEB-0012             
1 44057U 19010A   22096.72193758  .00000061  00000+0  10952-3 0  9998
2 44057  86.8082 179.1170 0001241 104.3723 255.7549 13.23428369149886
ONEWEB-0010             
1 44058U 19010B   22096.48447790  .00000135  00000+0  28666-3 0  9993
2 44058  86.7928 178.8327 0001940 105.8057 254.3291 13.23132933149874
ONEWEB-0008             
1 44059U 19010C   22096.75351113  .00000046  00000+0  73561-4 0  9993
2 44059  86.8085 179.0971 0001907  95.4150 264.7201 13.23608451150038
ONEWEB-0007             
1 44060U 19010D   22096.91667824 -.00045126  00000+0 -12045+0 0  9997
2 44060  87.9144 203.8698 0002459 109.8330 160.1497 13.15572188149945
ONEWEB-0006             
1 44061U 19010E   22096.91667824 -.00043074  00000+0 -11496+0 0  9997
2 44061  87.9175 203.9182 0002361 100.3288 229.6611 13.15565536149958
ONEWEB-0011             
1 44062U 19010F   22096.58334491  .00013169  00000+0  34904-1 0  9993
2 44062  87.9179 204.0050 0002060 119.6095 132.6516 13.15535125149930
S5                      
1 44065U 19009D   22095.82910934 -.00000251  00000+0  00000+0 0  9999
2 44065   2.6389  88.2977 0003127  11.5547 348.7923  0.99339477 11218
CHINASAT 6C (ZX 6C)     
1 44067U 19012A   22096.55792715 -.00000356  00000+0  00000+0 0  9997
2 44067   0.0485 103.7090 0004671 179.9460 237.0579  1.00272999 11367
WGS 10 (USA 291)        
1 44071U 19014A   22096.47827038  .00000045  00000+0  00000+0 0  9996
2 44071   0.0124 195.0266 0000161  88.7048 143.4558  1.00270714 11258
PRISMA                  
1 44072U 19015A   22096.86180423  .00000108  00000+0  19403-4 0  9993
2 44072  97.8519 172.5935 0001179  89.5770 270.5591 14.83665959164842
TIANLIAN 2-01           
1 44076U 19017A   22096.85327054 -.00000136  00000+0  00000+0 0  9991
2 44076   0.4028 283.0270 0030081 224.1632  74.9896  1.00269157 11243
EMISAT                  
1 44078U 19018A   22096.76999680  .00000265  00000+0  90886-4 0  9992
2 44078  98.4461 157.1689 0018902 162.6409 197.5424 14.43678550158944
FLOCK 4A-2              
1 44080U 19018C   22096.63613603  .00027478  00000+0  97511-3 0  9995
2 44080  97.3195 157.5897 0009939  11.3062 348.8399 15.28978578167690
ASTROCAST 0.2           
1 44083U 19018F   22096.69271924  .00012072  00000+0  47973-3 0  9991
2 44083  97.3300 156.9821 0012311  29.8299 330.3638 15.25384186167544
LEMUR-2-JOHANLORAN      
1 44084U 19018G   22096.44304631  .00030753  00000+0  10076-2 0  9996
2 44084  97.3224 158.8168 0010340  14.0636 346.0891 15.31543672167747
LEMUR-2-BEAUDACIOUS     
1 44085U 19018H   22096.71668539  .00021521  00000+0  74107-3 0  9996
2 44085  97.3213 158.4060 0011026  16.5483 343.6116 15.30000063167735
LEMUR-2-ELHAM           
1 44086U 19018J   22096.41352924  .00022335  00000+0  74524-3 0  9999
2 44086  97.3249 159.1440 0010352  13.9459 346.2066 15.31021111167753
LEMUR-2-VICTOR-ANDREW   
1 44087U 19018K   22096.72323408  .00030425  00000+0  98488-3 0  9993
2 44087  97.3246 159.6618 0010109  13.6598 346.4916 15.31937550167810
FLOCK 4A-17             
1 44088U 19018L   22096.72250569  .00020413  00000+0  71662-3 0  9992
2 44088  97.3205 158.0641 0011148  16.9400 343.2211 15.29379711167715
FLOCK 4A-19             
1 44090U 19018N   22096.68362610  .00033592  00000+0  11972-2 0  9990
2 44090  97.3197 158.0896 0011405  19.7424 340.4256 15.28780758167717
FLOCK 4A-6              
1 44094U 19018S   22096.60250785  .00011527  00000+0  41397-3 0  9994
2 44094  97.3208 158.1360 0009356  27.8238 332.3500 15.28782450167719
FLOCK 4A-5              
1 44095U 19018T   22096.70871270  .00023203  00000+0  85312-3 0  9993
2 44095  97.3214 157.9929 0009791  26.0093 334.1636 15.27849216167700
FLOCK 4A-11             
1 44096U 19018U   22096.70881486  .00013352  00000+0  47104-3 0  9995
2 44096  97.3209 158.3321 0009265  30.0307 330.1463 15.29329208167727
FLOCK 4A-9              
1 44098U 19018W   22096.69536461  .00020074  00000+0  71042-3 0  9992
2 44098  97.3217 158.3478 0009950  30.0072 330.1737 15.29132389167727
AISTECHSAT-3            
1 44103U 19018AB  22096.72801898  .00009560  00000+0  37111-3 0  9998
2 44103  97.3162 157.4334 0013043  36.6251 323.5877 15.26220771167702
AIS & APRS & ARIS & R/B 
1 44104U 19018AC  22096.19365506  .00009209  00000+0  26752-3 0  9990
2 44104  97.3966 179.1124 0054201  33.4355 327.0291 15.34218868168516
BLUEWALKER 1            
1 44105U 19018AD  22096.78506445  .00013534  00000+0  37249-3 0  9994
2 44105  97.4101 182.2251 0052222  33.9086 326.5477 15.35887026168667
M6P                     
1 44109U 19018AF  22096.49551647  .00019918  00000+0  52655-3 0  9990
2 44109  97.3974 180.0302 0050404  27.7210 332.6704 15.37130758168397
O3B FM20                
1 44112U 19020A   22096.25115180 -.00000027  00000+0  00000+0 0  9994
2 44112   0.0477   8.8571 0002439  16.2210 334.9325  5.00115419 54881
O3B FM19                
1 44113U 19020B   22096.27780228 -.00000027  00000+0  00000+0 0  9998
2 44113   0.0225  32.4408 0002099 321.7432   5.8124  5.00114893 54759
O3B FM17                
1 44114U 19020C   22096.35848544 -.00000027  00000+0  00000+0 0  9994
2 44114   0.0622 354.6994 0002747  27.1498 338.1613  5.00115443 54846
O3B FM18                
1 44115U 19020D   22096.50497284 -.00000027  00000+0  00000+0 0  9993
2 44115   0.0473   9.1475 0002801   8.4310 342.4301  5.00115748 54966
ARABSAT-6A              
1 44186U 19021A   22096.82611927  .00000152  00000+0  00000+0 0  9997
2 44186   0.0556 348.7216 0002743 339.3645 194.8726  1.00268553 10784
BEIDOU-3 IGSO-1         
1 44204U 19023A   22096.77213123 -.00000205  00000+0  00000+0 0  9990
2 44204  56.4568  53.7399 0020004 205.4202 333.1041  1.00279464 10994
TIANHUI 2-01A           
1 44207U 19024A   22096.84671389  .00002048  00000+0  10775-3 0  9994
2 44207  97.4598 102.3508 0001967  94.9276  27.0347 15.16755456162625
TIANHUI 2-01B           
1 44209U 19024C   22096.71299617  .00001924  00000+0  10143-3 0  9993
2 44209  97.4604 102.2198 0001832  91.2820  20.9927 15.16753986162605
AFOTEC-1 (FALCON ODE)   
1 44225U 19026A   22096.41150894  .00011823  00000+0  48024-3 0  9991
2 44225  40.0163 101.2528 0008509 218.1124 141.9076 15.24270146162495
SPARC-1                 
1 44226U 19026B   22096.35362057  .00019984  00000+0  71917-3 0  9994
2 44226  40.0249  84.6635 0011756 238.0842 121.8818 15.28005184162741
HARBINGER (ICEYE-X3)    
1 44229U 19026E   22096.48951401  .00011430  00000+0  46567-3 0  9999
2 44229  40.0186  99.2043 0009410 218.7776 141.2351 15.24184983162529
